INTELSAT 26 (IS-26)     
1 24732U 97007A   19118.87339646  .00000015  00000-0  00000-0 0  9993
2 24732   8.4588  45.4875 0006447   9.9060 177.7563  1.00272051 46601
GALAXY 25 (G-25)        
1 24812U 97026A   19118.82703765 -.00000170  00000-0  00000-0 0  9998
2 24812   0.9651  93.5546 0003377 299.5205  28.0654  1.00275332 80235
INTELSAT 5 (IS-5)       
1 24916U 97046A   19118.54979747  .00000086  00000-0  00000+0 0  9993
2 24916   4.8783  67.7457 0004803 333.2094 236.1965  1.00272702 79479
INTELSAT 805 (IS-805)   
1 25371U 98037A   19119.16647253 -.00000036  00000-0  00000+0 0  9999
2 25371   1.4994  90.8576 0003343 308.3295  46.6786  1.00272999 76431
GALAXY 11 (G-11)        
1 26038U 99071A   19119.13099904 -.00000096  00000-0  00000+0 0  9996
2 26038   0.2573 106.1446 0003792 321.4377 192.3174  0.99972423 70951
INTELSAT 9 (IS-9)       
1 26451U 00043A   19119.50494369 -.00000011  00000-0  00000+0 0  9998
2 26451   4.8677  67.9387 0003606 327.8039  69.3597  1.00272983 68723
INTELSAT 12 (IS-12)     
1 26590U 00068A   19118.92638692  .00000006  00000-0  00000-0 0  9997
2 26590   1.9679  88.3881 0003962 327.7861 198.1777  1.00273279 25587
INTELSAT 1R (IS-1R)     
1 26608U 00072A   19119.57498520 -.00000143  00000-0  00000+0 0  9990
2 26608   1.7774  89.1236 0000084 341.5388 150.6701  1.00271938 67524
INTELSAT 10 (IS-10)     
1 26766U 01019A   19119.50119256  .00000120  00000-0  00000+0 0  9990
2 26766   2.9711  81.5796 0002475   4.5619 358.9492  1.00274889 65806
INTELSAT 901 (IS-901)   
1 26824U 01024A   19118.88517245 -.00000221  00000-0  00000-0 0  9995
2 26824   0.9459  93.3624 0003107 318.8516  93.5063  1.00273148 65554
INTELSAT 902 (IS-902)   
1 26900U 01039A   19119.14518698  .00000025  00000-0  00000+0 0  9999
2 26900   0.0203 138.8360 0002963 258.5552 293.6869  1.00271763 64634
DIRECTV 4S              
1 26985U 01052A   19119.23935597 -.00000121  00000-0  00000+0 0  9996
2 26985   0.0158 210.1405 0002374 176.3734 175.3782  1.00272274 63867
INTELSAT 904 (IS-904)   
1 27380U 02007A   19119.49622010  .00000117  00000-0  00000+0 0  9992
2 27380   0.4957  97.6007 0001946 309.2857  11.5925  1.00171196 62962
INTELSAT 903 (IS-903)   
1 27403U 02016A   19119.41361183 -.00000230  00000-0  00000+0 0  9998
2 27403   1.3316  91.9026 0002749 338.2709 264.3119  1.00271244 62514
DIRECTV 5 (TEMPO 1)     
1 27426U 02023A   19118.60830866 -.00000065  00000-0  00000+0 0  9996
2 27426   0.0152 235.3516 0003476 172.0723 277.7349  1.00270159 62178
INTELSAT 905 (IS-905)   
1 27438U 02027A   19118.91252883 -.00000192  00000-0  00000-0 0  9996
2 27438   0.3150  99.2496 0002631 301.8816 119.4774  1.00271607 61838
GALAXY 3C (G-3C)        
1 27445U 02030A   19118.89848385 -.00000159  00000-0  00000-0 0  9996
2 27445   0.0178 290.6149 0001755  37.6174 116.7369  1.00270361 20361
INTELSAT 906 (IS-906)   
1 27513U 02041A   19119.14544868  .00000007  00000-0  00000+0 0  9992
2 27513   0.0178 243.7479 0002250 165.3601 284.2247  1.00271485 60837
INTELSAT 907 (IS-907)   
1 27683U 03007A   19119.41448418 -.00000209  00000-0  00000+0 0  9992
2 27683   0.0173 224.5751 0002381 169.6053 304.5974  1.00271840 59255
GALAXY 12 (G-12)        
1 27715U 03013B   19119.48938321  .00000052  00000-0  00000+0 0  9994
2 27715   0.5328  95.7199 0002369 326.5039 202.1041  1.00272881 58877
GALAXY 23 (G-23)        
1 27854U 03034A   19118.89324971  .00000005  00000-0  00000-0 0  9994
2 27854   0.0202 262.8298 0003058 137.5703  16.7476  1.00271502 57608
GALAXY 13 (HORIZONS 1)  
1 27954U 03044A   19118.67670161  .00000039  00000-0  00000+0 0  9993
2 27954   0.0437 106.4319 0001612  96.8907 129.6368  1.00270640 57025
DIRECTV 7S              
1 28238U 04016A   19118.86072427 -.00000007  00000-0  00000-0 0  9998
2 28238   0.0118 257.9490 0002966 151.7261 357.6477  1.00270192 54928
INTELSAT 10-02          
1 28358U 04022A   19119.44077184 -.00000017  00000-0  00000+0 0  9998
2 28358   0.0187 223.3884 0003166 193.5330 317.8683  1.00274182 54509
XM-3 (RHYTHM)           
1 28626U 05008A   19119.40296904 -.00000213  00000-0  00000+0 0  9998
2 28626   0.0247 102.8780 0000342 309.6750 224.4985  1.00273614 51930
SPACEWAY 1              
1 28644U 05015A   19119.17685361  .00000096  00000-0  00000+0 0  9997
2 28644   0.1806  97.7670 0000060  17.1181  26.7358  1.00272798 51386
DIRECTV 8               
1 28659U 05019A   19119.34390227 -.00000123  00000-0  00000+0 0  9992
2 28659   0.0156 239.5412 0002850 160.3539 200.1563  1.00269210 51051
GALAXY 28 (G-28)        
1 28702U 05022A   19118.89970517 -.00000193  00000-0  00000-0 0  9998
2 28702   0.0188 125.0962 0002401 328.3833 357.9799  1.00272341 25972
GALAXY 14 (G-14)        
1 28790U 05030A   19119.19778615  .00000029  00000-0  00000+0 0  9999
2 28790   0.0131  68.6500 0002453 333.2040 121.2124  1.00271802 50174
GALAXY 15 (G-15)        
1 28884U 05041A   19119.51591126  .00000072  00000-0  00000+0 0  9999
2 28884   0.0104 273.9239 0001751 113.5971 242.3812  1.00273289 49493
SPACEWAY 2              
1 28903U 05046B   19118.89769874 -.00000135  00000-0  00000+0 0  9994
2 28903   0.0070  92.2640 0000198  62.6775 285.7330  1.00272255 49369
GALAXY 16 (G-16)        
1 29236U 06023A   19119.18479206 -.00000134  00000-0  00000+0 0  9999
2 29236   0.0137 225.5753 0002566 169.5965 149.1937  1.00268472 47133
DIRECTV 9S              
1 29494U 06043A   19119.23935584 -.00000121  00000-0  00000+0 0  9995
2 29494   0.0193 167.9203 0002958 230.9496 163.1070  1.00270684 45979
XM-4 (BLUES)            
1 29520U 06049A   19119.47889605 -.00000029  00000-0  00000+0 0  9996
2 29520   0.0018  52.8399 0000389  53.0411 168.3799  1.00269136 45863
GALAXY 17 (G-17)        
1 31307U 07016B   19119.40174773 -.00000181  00000-0  00000+0 0  9992
2 31307   0.0574  88.9236 0003676 324.7664 217.0093  1.00271592 43941
DIRECTV 10              
1 31862U 07032A   19119.44010204 -.00000110  00000-0  00000+0 0  9990
2 31862   0.0395  56.2253 0000242 105.3788 111.1018  1.00272434 43274
SPACEWAY 3              
1 32018U 07036A   19119.43979155 -.00000159  00000-0  00000+0 0  9999
2 32018   0.0080 105.5291 0000244 304.5455 230.4021  1.00272016 42998
INTELSAT 11 (IS-11)     
1 32253U 07044B   19119.48313472 -.00000275  00000-0  00000+0 0  9997
2 32253   0.0481  85.8296 0001519 332.4880 289.7726  1.00273397 42405
HORIZONS 2              
1 32388U 07063B   19118.92063385 -.00000190  00000-0  00000-0 0  9997
2 32388   0.0164 256.5931 0003122 152.4508 223.8277  1.00269417 41726
DIRECTV 11              
1 32729U 08013A   19118.61048955 -.00000135  00000-0  00000+0 0  9992
2 32729   0.0076  92.8866 0000089 180.1536  63.8534  1.00272338 40793
GALAXY 18 (G-18)        
1 32951U 08024A   19119.30374392  .00000018  00000-0  00000+0 0  9994
2 32951   0.0187 258.7785 0003270 154.0848 150.4463  1.00273645 39959
INTELSAT 25 (IS-25)     
1 33153U 08034A   19119.15118896 -.00000231  00000-0  00000+0 0  9996
2 33153   0.0211 253.8358 0001498 100.4886 245.4136  1.00272298 39507
GALAXY 19 (G-19)        
1 33376U 08045A   19118.82625253 -.00000147  00000-0  00000+0 0  9994
2 33376   0.0150 237.2540 0003078 170.9321   8.7596  1.00268974 38704
SIRIUS FM-5             
1 35493U 09034A   19119.47458560 -.00000207  00000-0  00000+0 0  9999
2 35493   0.0203 280.6288 0000882  91.7189 289.5005  1.00272038 35840
INTELSAT 14 (IS-14)     
1 36097U 09064A   19119.41099476 -.00000280  00000-0  00000+0 0  9995
2 36097   0.0143 166.8338 0002395 232.2557 280.9394  1.00273800 34569
INTELSAT 15 (IS-15)     
1 36106U 09067A   19118.92063385 -.00000194  00000-0  00000-0 0  9999
2 36106   0.0182 270.8258 0002504 145.4423 216.9062  1.00271814 15179
DIRECTV 12              
1 36131U 09075A   19119.44010193 -.00000110  00000-0  00000+0 0  9990
2 36131   0.0133 220.3902 0000281 165.4853 246.8680  1.00271131 34258
INTELSAT 16 (IS-16)     
1 36397U 10006A   19119.46685470 -.00000251  00000-0  00000+0 0  9994
2 36397   0.0152 247.8411 0002107 176.0156 245.1426  1.00268867 33605
XM-5                    
1 37185U 10053A   19119.47476007 -.00000212  00000-0  00000+0 0  9994
2 37185   0.0136 269.4793 0000697  43.4920 349.8666  1.00272644 31316
INTELSAT 17 (IS-17)     
1 37238U 10065B   19119.52549601 -.00000009  00000-0  00000+0 0  9997
2 37238   0.0166 181.1449 0002286 218.2632  72.9644  1.00275973 30793
INTELSAT NEW DAWN       
1 37392U 11016A   19118.85216159  .00000147  00000-0  00000-0 0  9992
2 37392   0.0150 195.9179 0000347  97.2606 262.9403  1.00274971 27171
INTELSAT 18 (IS-18)     
1 37834U 11056A   19119.51348868  .00000046  00000-0  00000+0 0  9991
2 37834   0.0144 269.4373 0002581 153.2910 159.2858  1.00269497 27721
INTELSAT 22 (IS-22)     
1 38098U 12011A   19119.50607775 -.00000066  00000-0  00000+0 0  9993
2 38098   0.0069 270.3765 0002627 125.8593  75.2293  1.00272083 25924
INTELSAT 19 (IS-19)     
1 38356U 12030A   19119.16586188 -.00000064  00000-0  00000+0 0  9995
2 38356   0.0124 260.0517 0003128 147.6114  34.8829  1.00270405 25384
INTELSAT 20 (IS-20)     
1 38740U 12043A   19119.50537987 -.00000031  00000-0  00000+0 0  9991
2 38740   0.0150 174.4726 0001553  26.8310 266.3000  1.00270699 24709
INTELSAT 21 (IS-21)     
1 38749U 12045A   19119.17479990 -.00000292  00000-0  00000+0 0  9993
2 38749   0.0269 113.4876 0002133 289.8864 178.4073  1.00272416 24508
INTELSAT 23 (IS-23)     
1 38867U 12057A   19119.48112830 -.00000292  00000-0  00000+0 0  9998
2 38867   0.0116 228.8855 0001473 168.6136 299.8498  1.00271897 23971
SIRIUS FM-6             
1 39360U 13058A   19118.67888251 -.00000026  00000-0  00000+0 0  9991
2 39360   0.0135 282.1284 0000671 309.2489 113.2363  1.00271469 20212
INTELSAT 30 (IS-30)     
1 40271U 14062A   19118.89848385 -.00000159  00000-0  00000-0 0  9996
2 40271   0.0155 267.9936 0001556 181.4880 355.4950  1.00271065 16501
INTELSAT 34 (IS-34)     
1 40874U 15039A   19119.48069212 -.00000292  00000-0  00000+0 0  9997
2 40874   0.0192 260.6212 0000320 358.8071  75.2761  1.00273021 13539
INTELSAT 29E (IS-29E)   
1 41308U 16004A   19118.88501295 -.00000167  00000-0  00000-0 0  9990
2 41308   0.0777  95.3175 0030803 310.1405 101.4405  1.00591625 12059
INTELSAT 31 (IS-31)     
1 41581U 16035A   19119.43981245 -.00000158  00000-0  00000+0 0  9995
2 41581   0.0181 250.3407 0002526 318.0387  72.0038  1.00270858 10560
INTELSAT 36 (IS-36)     
1 41747U 16053A   19119.50537987 -.00000031  00000-0  00000+0 0  9997
2 41747   0.0134 322.3398 0000574  27.3958 117.8654  1.00272069  9832
INTELSAT 33E (IS-33E)   
1 41748U 16053B   19118.90399662  .00000041  00000-0  00000+0 0  9997
2 41748   0.0320  34.6985 0002048  22.1979 185.1235  1.00271620 10083
INTELSAT 32E (IS-32E)   
1 41945U 17007B   19119.48313472 -.00000276  00000-0  00000+0 0  9996
2 41945   0.0169 248.4861 0000176 351.4752 107.9442  1.00268210  8112
INTELSAT 35E (IS-35E)   
1 42818U 17041A   19119.41308840 -.00000245  00000-0  00000+0 0  9996
2 42818   0.0197 197.4381 0002157 212.2908 281.5618  1.00271108  6708
INTELSAT 37E (IS-37E)   
1 42950U 17059A   19119.41631613 -.00000147  00000-0  00000+0 0  9990
2 42950   0.0172 257.8007 0002416 151.4952 299.6540  1.00274949  5917
AZERSPACE 2 (IS-38)     
1 43632U 18074A   19119.50075638  .00000130  00000-0  00000+0 0  9996
2 43632   0.0133 256.9799 0001357 153.1250  32.4339  1.00271586  2384
HORIZONS 3E             
1 43633U 18074B   19119.47063479 -.00000037  00000-0  00000+0 0  9990
2 43633   0.0044  41.5949 0000059 197.0552 316.9070  1.00272448  2224
